GSAT0213 (GALILEO 17)   
1 41861U 16069C   22229.96423821 -.00000026  00000+0  00000+0 0  9991
2 41861  54.8301 139.8810 0003431 278.7546  81.2345  1.70472841 35660
GSAT0214 (GALILEO 18)   
1 41862U 16069D   22227.17842323 -.00000014  00000+0  00000+0 0  9992
2 41862  54.8275 139.9529 0002632 285.1439  74.8530  1.70472585 35742
GOES 16                 
1 41866U 16071A   22230.41069642 -.00000256  00000+0  00000+0 0  9993
2 41866   0.0567 270.6309 0000650 294.8691 193.8913  1.00271813 21080
GSAT-17                 
1 42815U 17040B   22230.37263794 -.00000266  00000+0  00000+0 0  9995
2 42815   0.0838  98.9305 0003362 134.8416 320.5831  1.00271493 18767
GSAT0215 (GALILEO 19)   
1 43055U 17079A   22227.66862469  .00000018  00000+0  00000+0 0  9990
2 43055  55.7072 260.0937 0003979 266.7523  93.2586  1.70474343 29097
GSAT0216 (GALILEO 20)   
1 43056U 17079B   22229.72056285  .00000026  00000+0  00000+0 0  9990
2 43056  55.7064 260.0370 0005656 271.7242  88.2639  1.70474171 29146
GSAT0217 (GALILEO 21)   
1 43057U 17079C   22229.35421842  .00000024  00000+0  00000+0 0  9993
2 43057  55.7039 260.0467 0005032 281.1498  78.8465  1.70474489 29124
GSAT0218 (GALILEO 22)   
1 43058U 17079D   22230.16084234  .00000029  00000+0  00000+0 0  9990
2 43058  55.7042 260.0218 0006104 269.3633  90.6202  1.70474460 29167
GOES 17                 
1 43226U 18022A   22229.18263965  .00000087  00000+0  00000+0 0  9990
2 43226   0.0889 271.0471 0000332 259.8557  83.0630  1.00273352 16386
GSAT0221 (GALILEO 25)   
1 43564U 18060A   22229.47301533 -.00000092  00000+0  00000+0 0  9990
2 43564  57.1967  19.5354 0001869 249.2084 110.7722  1.70476003 25307
GSAT0222 (GALILEO 26)   
1 43565U 18060B   22229.69288585 -.00000092  00000+0  00000+0 0  9996
2 43565  57.1992  19.5297 0001214 264.4446  95.5425  1.70476038 25350
GSAT0219 (GALILEO 23)   
1 43566U 18060C   22228.74025962 -.00000092  00000+0  00000+0 0  9990
2 43566  57.1980  19.5575 0000848 260.2400  99.7497  1.70475977 25315
GSAT0220 (GALILEO 24)   
1 43567U 18060D   22229.54700393 -.00000092  00000+0  00000+0 0  9998
2 43567  57.1996  19.5352 0001269 244.2569 115.7306  1.70475921 25319
BEIDOU-3 M13            
1 43622U 18072A   22230.40421986 -.00000054  00000+0  00000+0 0  9996
2 43622  55.5132 109.2745 0006139 297.2488 175.2277  1.86231884 26603
BEIDOU-3 M14            
1 43623U 18072B   22229.78475969 -.00000050  00000+0  00000+0 0  9992
2 43623  55.5151 109.2866 0004381 327.9307 179.4655  1.86231946 26590
NAVSTAR 77 (USA 289)    
1 43873U 18109A   22230.22501759 -.00000018  00000+0  00000+0 0  9992
2 43873  55.0993 147.4572 0019801 191.3000 335.0577  2.00553119 27017
METEOR-M2 2             
1 44387U 19038A   22230.41867716 -.00000019  00000+0  11007-4 0  9999
2 44387  98.7271 190.7151 0002448  91.0586 269.0877 14.23716904162222
