[{"OBJECT_NAME":"GSAT0213 (GALILEO 17)","OBJECT_ID":"2016-069C","EPOCH":"2022-08-17T23:08:30.181344","MEAN_MOTION":1.70472841,"ECCENTRICITY":0.0003431,"INCLINATION":54.8301,"RA_OF_ASC_NODE":139.881,"ARG_OF_PERICENTER":278.7546,"MEAN_ANOMALY":81.2345,"EPHEMERIS_TYPE":0,"CLASSIFICATION_TYPE":"U","NORAD_CAT_ID":41861,"ELEMENT_SET_NO":999,"REV_AT_EPOCH":3566,"BSTAR":0,"MEAN_MOTION_DOT":-2.6e-7,"MEAN_MOTION_DDOT":0},{"OBJECT_NAME":"GSAT0214 (GALILEO 18)","OBJECT_ID":"2016-069D","EPOCH":"2022-08-15T04:16:55.767072","MEAN_MOTION":1.70472585,"ECCENTRICITY":0.0002632,"INCLINATION":54.8275,"RA_OF_ASC_NODE":139.9529,"ARG_OF_PERICENTER":285.1439,"MEAN_ANOMALY":74.853,"EPHEMERIS_TYPE":0,"CLASSIFICATION_TYPE":"U","NORAD_CAT_ID":41862,"ELEMENT_SET_NO":999,"REV_AT_EPOCH":3574,"BSTAR":0,"MEAN_MOTION_DOT":-1.4e-7,"MEAN_MOTION_DDOT":0},{"OBJECT_NAME":"GOES 16","OBJECT_ID":"2016-071A","EPOCH":"2022-08-18T09:51:24.170688","MEAN_MOTION":1.00271813,"ECCENTRICITY":6.5e-5,"INCLINATION":0.0567,"RA_OF_ASC_NODE":270.6309,"ARG_OF_PERICENTER":294.8691,"MEAN_ANOMALY":193.8913,"EPHEMERIS_TYPE":0,"CLASSIFICATION_TYPE":"U","NORAD_CAT_ID":41866,"ELEMENT_SET_NO":999,"REV_AT_EPOCH":2108,"BSTAR":0,"MEAN_MOTION_DOT":-2.56e-6,"MEAN_MOTION_DDOT":0},{"OBJECT_NAME":"GSAT-17","OBJECT_ID":"2017-040B","EPOCH":"2022-08-18T08:56:35.918016","MEAN_MOTION":1.00271493,"ECCENTRICITY":0.0003362,"INCLINATION":0.0838,"RA_OF_ASC_NODE":98.9305,"ARG_OF_PERICENTER":134.8416,"MEAN_ANOMALY":320.5831,"EPHEMERIS_TYPE":0,"CLASSIFICATION_TYPE":"U","NORAD_CAT_ID":42815,"ELEMENT_SET_NO":999,"REV_AT_EPOCH":1876,"BSTAR":0,"MEAN_MOTION_DOT":-2.66e-6,"MEAN_MOTION_DDOT":0},{"OBJECT_NAME":"GSAT0215 (GALILEO 19)","OBJECT_ID":"2017-079A","EPOCH":"2022-08-15T16:02:49.173216","MEAN_MOTION":1.70474343,"ECCENTRICITY":0.0003979,"INCLINATION":55.7072,"RA_OF_ASC_NODE":260.0937,"ARG_OF_PERICENTER":266.7523,"MEAN_ANOMALY":93.2586,"EPHEMERIS_TYPE":0,"CLASSIFICATION_TYPE":"U","NORAD_CAT_ID":43055,"ELEMENT_SET_NO":999,"REV_AT_EPOCH":2909,"BSTAR":0,"MEAN_MOTION_DOT":1.8e-7,"MEAN_MOTION_DDOT":0},{"OBJECT_NAME":"GSAT0216 (GALILEO 20)","OBJECT_ID":"2017-079B","EPOCH":"2022-08-17T17:17:36.630240","MEAN_MOTION":1.70474171,"ECCENTRICITY":0.0005656,"INCLINATION":55.7064,"RA_OF_ASC_NODE":260.037,"ARG_OF_PERICENTER":271.7242,"MEAN_ANOMALY":88.2639,"EPHEMERIS_TYPE":0,"CLASSIFICATION_TYPE":"U","NORAD_CAT_ID":43056,"ELEMENT_SET_NO":999,"REV_AT_EPOCH":2914,"BSTAR":0,"MEAN_MOTION_DOT":2.6e-7,"MEAN_MOTION_DDOT":0},{"OBJECT_NAME":"GSAT0217 (GALILEO 21)","OBJECT_ID":"2017-079C","EPOCH":"2022-08-17T08:30:04.471488","MEAN_MOTION":1.70474489,"ECCENTRICITY":0.0005032,"INCLINATION":55.7039,"RA_OF_ASC_NODE":260.0467,"ARG_OF_PERICENTER":281.1498,"MEAN_ANOMALY":78.8465,"EPHEMERIS_TYPE":0,"CLASSIFICATION_TYPE":"U","NORAD_CAT_ID":43057,"ELEMENT_SET_NO":999,"REV_AT_EPOCH":2912,"BSTAR":0,"MEAN_MOTION_DOT":2.4e-7,"MEAN_MOTION_DDOT":0},{"OBJECT_NAME":"GSAT0218 (GALILEO 22)","OBJECT_ID":"2017-079D","EPOCH":"2022-08-18T03:51:36.778176","MEAN_MOTION":1.7047446,"ECCENTRICITY":0.0006104,"INCLINATION":55.7042,"RA_OF_ASC_NODE":260.0218,"ARG_OF_PERICENTER":269.3633,"MEAN_ANOMALY":90.6202,"EPHEMERIS_TYPE":0,"CLASSIFICATION_TYPE":"U","NORAD_CAT_ID":43058,"ELEMENT_SET_NO":999,"REV_AT_EPOCH":2916,"BSTAR":0,"MEAN_MOTION_DOT":2.9e-7,"MEAN_MOTION_DDOT":0},{"OBJECT_NAME":"GOES 17","OBJECT_ID":"2018-022A","EPOCH":"2022-08-17T04:23:00.065760","MEAN_MOTION":1.00273352,"ECCENTRICITY":3.32e-5,"INCLINATION":0.0889,"RA_OF_ASC_NODE":271.0471,"ARG_OF_PERICENTER":259.8557,"MEAN_ANOMALY":83.063,"EPHEMERIS_TYPE":0,"CLASSIFICATION_TYPE":"U","NORAD_CAT_ID":43226,"ELEMENT_SET_NO":999,"REV_AT_EPOCH":1638,"BSTAR":0,"MEAN_MOTION_DOT":8.7e-7,"MEAN_MOTION_DDOT":0},{"OBJECT_NAME":"GSAT0221 (GALILEO 25)","OBJECT_ID":"2018-060A","EPOCH":"2022-08-17T11:21:08.524512","MEAN_MOTION":1.70476003,"ECCENTRICITY":0.0001869,"INCLINATION":57.1967,"RA_OF_ASC_NODE":19.5354,"ARG_OF_PERICENTER":249.2084,"MEAN_ANOMALY":110.7722,"EPHEMERIS_TYPE":0,"CLASSIFICATION_TYPE":"U","NORAD_CAT_ID":43564,"ELEMENT_SET_NO":999,"REV_AT_EPOCH":2530,"BSTAR":0,"MEAN_MOTION_DOT":-9.2e-7,"MEAN_MOTION_DDOT":0},{"OBJECT_NAME":"GSAT0222 (GALILEO 26)","OBJECT_ID":"2018-060B","EPOCH":"2022-08-17T16:37:45.337440","MEAN_MOTION":1.70476038,"ECCENTRICITY":0.0001214,"INCLINATION":57.1992,"RA_OF_ASC_NODE":19.5297,"ARG_OF_PERICENTER":264.4446,"MEAN_ANOMALY":95.5425,"EPHEMERIS_TYPE":0,"CLASSIFICATION_TYPE":"U","NORAD_CAT_ID":43565,"ELEMENT_SET_NO":999,"REV_AT_EPOCH":2535,"BSTAR":0,"MEAN_MOTION_DOT":-9.2e-7,"MEAN_MOTION_DDOT":0},{"OBJECT_NAME":"GSAT0219 (GALILEO 23)","OBJECT_ID":"2018-060C","EPOCH":"2022-08-16T17:45:58.431168","MEAN_MOTION":1.70475977,"ECCENTRICITY":8.48e-5,"INCLINATION":57.198,"RA_OF_ASC_NODE":19.5575,"ARG_OF_PERICENTER":260.24,"MEAN_ANOMALY":99.7497,"EPHEMERIS_TYPE":0,"CLASSIFICATION_TYPE":"U","NORAD_CAT_ID":43566,"ELEMENT_SET_NO":999,"REV_AT_EPOCH":2531,"BSTAR":0,"MEAN_MOTION_DOT":-9.2e-7,"MEAN_MOTION_DDOT":0},{"OBJECT_NAME":"GSAT0220 (GALILEO 24)","OBJECT_ID":"2018-060D","EPOCH":"2022-08-17T13:07:41.139552","MEAN_MOTION":1.70475921,"ECCENTRICITY":0.0001269,"INCLINATION":57.1996,"RA_OF_ASC_NODE":19.5352,"ARG_OF_PERICENTER":244.2569,"MEAN_ANOMALY":115.7306,"EPHEMERIS_TYPE":0,"CLASSIFICATION_TYPE":"U","NORAD_CAT_ID":43567,"ELEMENT_SET_NO":999,"REV_AT_EPOCH":2531,"BSTAR":0,"MEAN_MOTION_DOT":-9.2e-7,"MEAN_MOTION_DDOT":0},{"OBJECT_NAME":"BEIDOU-3 M13","OBJECT_ID":"2018-072A","EPOCH":"2022-08-18T09:42:04.595904","MEAN_MOTION":1.86231884,"ECCENTRICITY":0.0006139,"INCLINATION":55.5132,"RA_OF_ASC_NODE":109.2745,"ARG_OF_PERICENTER":297.2488,"MEAN_ANOMALY":175.2277,"EPHEMERIS_TYPE":0,"CLASSIFICATION_TYPE":"U","NORAD_CAT_ID":43622,"ELEMENT_SET_NO":999,"REV_AT_EPOCH":2660,"BSTAR":0,"MEAN_MOTION_DOT":-5.4e-7,"MEAN_MOTION_DDOT":0},{"OBJECT_NAME":"BEIDOU-3 M14","OBJECT_ID":"2018-072B","EPOCH":"2022-08-17T18:50:03.237216","MEAN_MOTION":1.86231946,"ECCENTRICITY":0.0004381,"INCLINATION":55.5151,"RA_OF_ASC_NODE":109.2866,"ARG_OF_PERICENTER":327.9307,"MEAN_ANOMALY":179.4655,"EPHEMERIS_TYPE":0,"CLASSIFICATION_TYPE":"U","NORAD_CAT_ID":43623,"ELEMENT_SET_NO":999,"REV_AT_EPOCH":2659,"BSTAR":0,"MEAN_MOTION_DOT":-5.0e-7,"MEAN_MOTION_DDOT":0},{"OBJECT_NAME":"GPS BIII-1","OBJECT_ID":"2018-109A","EPOCH":"2022-08-18T05:24:01.519776","MEAN_MOTION":2.00553119,"ECCENTRICITY":0.0019801,"INCLINATION":55.0993,"RA_OF_ASC_NODE":147.4572,"ARG_OF_PERICENTER":191.3,"MEAN_ANOMALY":335.0577,"EPHEMERIS_TYPE":0,"CLASSIFICATION_TYPE":"U","NORAD_CAT_ID":43873,"ELEMENT_SET_NO":999,"REV_AT_EPOCH":2701,"BSTAR":0,"MEAN_MOTION_DOT":-1.8e-7,"MEAN_MOTION_DDOT":0},{"OBJECT_NAME":"METEOR-M2 2","OBJECT_ID":"2019-038A","EPOCH":"2022-08-18T10:02:53.706624","MEAN_MOTION":14.23716904,"ECCENTRICITY":0.0002448,"INCLINATION":98.7271,"RA_OF_ASC_NODE":190.7151,"ARG_OF_PERICENTER":91.0586,"MEAN_ANOMALY":269.0877,"EPHEMERIS_TYPE":0,"CLASSIFICATION_TYPE":"U","NORAD_CAT_ID":44387,"ELEMENT_SET_NO":999,"REV_AT_EPOCH":16222,"BSTAR":1.1007e-5,"MEAN_MOTION_DOT":-1.9e-7,"MEAN_MOTION_DDOT":0}]